{
    "links": {
        "self": "http://www.neowsapp.com/rest/v1/neo/3647015?api_key=iIulBulltgU6a56xZRHN4H3l9WmuAYTsLGpBGhQ2"
    },
    "id": "3647015",
    "neo_reference_id": "3647015",
    "name": "(2013 RS5)",
    "designation": "2013 RS5",
    "nasa_jpl_url": "http://ssd.jpl.nasa.gov/sbdb.cgi?sstr=3647015",
    "absolute_magnitude_h": 24.6,
    "estimated_diameter": {
        "kilometers": {
            "estimated_diameter_min": 0.0319561887,
            "estimated_diameter_max": 0.0714562102
        },
        "meters": {
            "estimated_diameter_min": 31.9561886721,
            "estimated_diameter_max": 71.4562101727
        },
        "miles": {
            "estimated_diameter_min": 0.0198566489,
            "estimated_diameter_max": 0.0444008168
        },
        "feet": {
            "estimated_diameter_min": 104.8431420431,
            "estimated_diameter_max": 234.436392583
        }
    },
    "is_potentially_hazardous_asteroid": false,
    "close_approach_data": [
        {
            "close_approach_date": "2013-08-31",
            "close_approach_date_full": "2013-Aug-31 15:45",
            "epoch_date_close_approach": 1377963900000,
            "relative_velocity": {
                "kilometers_per_second": "6.7829144396",
                "kilometers_per_hour": "24418.4919825145",
                "miles_per_hour": "15172.7013099129"
            },
            "miss_distance": {
                "astronomical": "0.1140621094",
                "lunar": "44.3701605566",
                "kilometers": "17063448.613946978",
                "miles": "10602735.3133371764"
            },
            "orbiting_body": "Earth"
        }
    ],
    "orbital_data": {
        "orbit_id": "9",
        "orbit_determination_date": "2017-04-06 08:44:57",
        "first_observation_date": "2013-09-01",
        "last_observation_date": "2013-10-01",
        "data_arc_in_days": 30,
        "observations_used": 25,
        "orbit_uncertainty": "7",
        "minimum_orbit_intersection": ".111588",
        "jupiter_tisserand_invariant": "3.649",
        "epoch_osculation": "2459000.5",
        "eccentricity": ".452150009321009",
        "semi_major_axis": "2.043887954440176",
        "inclination": "9.445782407047387",
        "ascending_node_longitude": "342.0326868962365",
        "orbital_period": "1067.293963543324",
        "perihelion_distance": "1.119743996788952",
        "perihelion_argument": "357.2382293454801",
        "aphelion_distance": "2.968031912091399",
        "perihelion_time": "2458671.483312163099",
        "mean_anomaly": "110.9778670798943",
        "mean_motion": ".3373016360036659",
        "equinox": "J2000",
        "orbit_class": {
            "orbit_class_type": "AMO",
            "orbit_class_description": "Near-Earth asteroid orbits similar to that of 1221 Amor",
            "orbit_class_range": "1.017 AU < q (perihelion) < 1.3 AU"
        }
    },
    "is_sentry_object": false
}